[
    {
        "Altitude(m)": 617710.6290645753,
        "Argument of Periapsis(deg)": 0.0,
        "Eccentricity": 0.0,
        "Inclination(deg)": 60.0,
        "Latitude(deg)": -41.102631455695075,
        "Longitude(deg)": 114.96663141501648,
        "Mean Anomaly(deg)": -49.09089999999994,
        "RAAN(deg)": 245.0,
        "Satellite Name": "Test1 1097",
        "Satellite Number": 1097,
        "Semi-Major Axis(m)": 6980739.136638005,
        "Time(s)": 0
    },
    {
        "Altitude(m)": 617517.9275782162,
        "Argument of Periapsis(deg)": 0.00010418945913296404,
        "Eccentricity": 0.0,
        "Inclination(deg)": 60.0,
        "Latitude(deg)": -40.636838394442556,
        "Longitude(deg)": 115.46342478727136,
        "Mean Anomaly(deg)": -48.470793854538094,
        "RAAN(deg)": 244.99957995086027,
        "Satellite Name": "Test1 1097",
        "Satellite Number": 1097,
        "Semi-Major Axis(m)": 6980739.136638005,
        "Time(s)": 10
    }
]